[{"OBJECT_NAME":"TIANQI-29","OBJECT_ID":"2024-170A","EPOCH":"2026-03-09T20:46:41.243232","MEAN_MOTION":13.99108812,"ECCENTRICITY":0.00055066,"INCLINATION":44.8559,"RA_OF_ASC_NODE":219.5799,"ARG_OF_PERICENTER":342.0099,"MEAN_ANOMALY":18.0536,"EPHEMERIS_TYPE":0,"CLASSIFICATION_TYPE":"U","NORAD_CAT_ID":61195,"ELEMENT_SET_NO":999,"REV_AT_EPOCH":7495,"BSTAR":0.00015072092,"MEAN_MOTION_DOT":9.2e-7,"MEAN_MOTION_DDOT":0},{"OBJECT_NAME":"CZ-6A DEB","OBJECT_ID":"2022-151CP","EPOCH":"2026-03-09T22:21:11.744352","MEAN_MOTION":14.07267513,"ECCENTRICITY":0.00553072,"INCLINATION":98.8603,"RA_OF_ASC_NODE":67.2935,"ARG_OF_PERICENTER":278.3392,"MEAN_ANOMALY":81.1509,"EPHEMERIS_TYPE":0,"CLASSIFICATION_TYPE":"U","NORAD_CAT_ID":54344,"ELEMENT_SET_NO":999,"REV_AT_EPOCH":17014,"BSTAR":0.00014176446,"MEAN_MOTION_DOT":1.97e-6,"MEAN_MOTION_DDOT":0}]
